[{"OBJECT_NAME":"TRANSPORTER-10 OBJECT AG","OBJECT_ID":"2024-043AG","EPOCH":"2026-03-09T22:12:45.387648","MEAN_MOTION":15.30759727,"ECCENTRICITY":0.00093005,"INCLINATION":97.5471,"RA_OF_ASC_NODE":205.7101,"ARG_OF_PERICENTER":226.5958,"MEAN_ANOMALY":133.4509,"EPHEMERIS_TYPE":0,"CLASSIFICATION_TYPE":"U","NORAD_CAT_ID":59128,"ELEMENT_SET_NO":999,"REV_AT_EPOCH":11192,"BSTAR":0.00032170115,"MEAN_MOTION_DOT":9.498e-5,"MEAN_MOTION_DDOT":0},{"OBJECT_NAME":"STARLINK-31462","OBJECT_ID":"2024-068M","EPOCH":"2026-03-09T07:08:34.580544","MEAN_MOTION":15.27573671,"ECCENTRICITY":0.00010212,"INCLINATION":43.0044,"RA_OF_ASC_NODE":36.6411,"ARG_OF_PERICENTER":282.5463,"MEAN_ANOMALY":77.5275,"EPHEMERIS_TYPE":0,"CLASSIFICATION_TYPE":"U","NORAD_CAT_ID":59466,"ELEMENT_SET_NO":999,"REV_AT_EPOCH":10846,"BSTAR":1.5534729e-5,"MEAN_MOTION_DOT":1.65e-6,"MEAN_MOTION_DDOT":0}]
